SL-16 R/B               
1 28353U 04021B   25207.80978125 -.00000287  00000+0 -12485-3 0  9995
2 28353  71.0023 346.5040 0004772 354.7136   5.3935 14.14552723 90892
CZ-4B R/B               
1 28415U 04035C   25208.12651683  .00007118  00000+0  28549-3 0  9998
2 28415  97.3770 240.4384 0036587  48.6698 311.7678 15.24678356145493
CZ-2C R/B               
1 28480U 04046B   25207.90568004  .00000175  00000+0  79862-4 0  9992
2 28480  98.1921 131.9948 0140886 102.4366 259.2622 14.26847374 76308
ARIANE 5 R/B            
1 28499U 04049H   25207.69283987  .00000671  00000+0  81751-4 0  9996
2 28499  98.2388   3.1536 0085295   4.2731 355.9192 14.84583547112250
CZ-2D R/B               
1 28738U 05024B   25207.93482062  .00020516  00000+0  43515-3 0  9993
2 28738  97.3674 212.5795 0008152 124.4262 235.7758 15.45056446104770
ALOS (DAICHI)           
1 28931U 06002A   25207.89126259  .00001586  00000+0  27998-3 0  9996
2 28931  98.0862 160.6211 0000789  63.7502 296.3785 14.68832756 40321
H-2A R/B                
1 28932U 06002B   25207.88531778  .00006708  00000+0  38657-3 0  9997
2 28932  98.2172 331.8436 0056904 287.5760  71.9257 15.11395676 60272
RESURS-DK 1             
1 29228U 06021A   25207.86535914  .00002467  00000+0  15308-3 0  9997
2 29228  69.9342 100.4249 0001877 135.6962 224.4353 15.11141635 53394
CZ-4B R/B               
1 29507U 06046C   25207.86002526  .00004842  00000+0  26577-3 0  9991
2 29507  97.5924 248.3721 0034390 330.6632  29.2668 15.14115551 25841
CZ-2C R/B               
1 31114U 07010B   25207.92402328  .00000124  00000+0  76186-4 0  9992
2 31114  98.3838 327.6817 0058206 229.9399 129.6666 14.20139635947672
COSMO-SKYMED 1          
1 31598U 07023A   25207.64662749  .00001696  00000+0  16209-3 0  9990
2 31598  97.8883  32.2424 0001262  88.5784 271.5580 14.94610181981112
GENESIS 2               
1 31789U 07028A   25208.19969774  .00188670  19969-4  60845-3 0  9998
2 31789  64.4677 245.4064 0025998 304.0899  55.7791 15.90131914   519
COSMOS 2428             
1 31792U 07029A   25207.76284108  .00000295  00000+0  18438-3 0  9994
2 31792  70.9442 317.5993 0005318 237.2291 122.8318 14.12892681932180
SL-16 R/B               
1 31793U 07029B   25207.97600884 -.00000174  00000+0 -65147-4 0  9999
2 31793  70.9765 286.8339 0002714 281.0792 252.2871 14.14792840933441
KORONAS-FOTON           
1 33504U 09003A   25207.87459559  .00012012  00000+0  32671-3 0  9992
2 33504  82.4345 149.4896 0009875 241.8017 118.2231 15.37349846910981
CZ-2C R/B               
1 37731U 11030B   25207.91437068  .00001527  00000+0  20250-3 0  9996
2 37731  97.8172 165.3630 0053674   6.7069  59.6127 14.80306449756685
H-2A R/B                
1 38341U 12025E   25207.77739580  .00003106  00000+0  29771-3 0  9999
2 38341  98.4377 152.6461 0045602 332.5712  27.3099 14.93219598714489
SHIJIAN-16 (SJ-16)      
1 39358U 13057A   25208.23851634  .00000774  00000+0  80091-4 0  9992
2 39358  74.9704 251.5777 0018207 299.1376  60.7988 14.91463871637952
SL-4 R/B                
1 39679U 14021B   25207.67164840  .00007919  00000+0  21711-3 0  9994
2 39679  51.6103 353.8742 0111444   3.3853 356.7857 15.32251847621548
ALOS-2                  
1 39766U 14029A   25208.23095769  .00001508  00000+0  20875-3 0  9993
2 39766  97.9230 305.0601 0001452  99.8722 260.2653 14.79467722603560
YAOGAN-29               
1 41038U 15069A   25208.21084436  .00000421  00000+0  58982-4 0  9994
2 41038  98.0337 230.8171 0002079  46.0243 314.1141 14.82677132522462
ASTRO-H (HITOMI)        
1 41337U 16012A   25207.88980418  .00003173  00000+0  19400-3 0  9990
2 41337  31.0013  11.6420 0009950 225.5757 134.4066 15.08227699518094
HXMT (HUIYAN)           
1 42758U 17034A   25208.21793169  .00003352  00000+0  19033-3 0  9997
2 42758  43.0136 186.9991 0035690 252.9046 106.7890 15.14167814448341
CZ-2C R/B               
1 43521U 18054D   25207.86366373  .00034192  00000+0  48730-3 0  9994
2 43521  35.1392  26.0359 0031961 268.1716  91.5350 15.54663556393325
SAOCOM 1A               
1 43641U 18076A   25208.14020547  .00000458  00000+0  64041-4 0  9995
2 43641  97.8893  34.5426 0001401  89.8202 270.3171 14.82153177367953
H-2A R/B                
1 43682U 18084L   25208.02635043  .00014745  00000+0  47886-3 0  9990
2 43682  98.8799  14.1231 0032225  81.4138 279.0748 15.31570412371137
SAOCOM 1B               
1 46265U 20059A   25208.17147508  .00000411  00000+0  58185-4 0  9995
2 46265  97.8897  33.6776 0001462  88.0746 272.0634 14.82161561265351
CSS (TIANHE)            
1 48274U 21035A   25208.12633179  .00019640  00000+0  26705-3 0  9997
2 48274  41.4649 138.5763 0006550 356.1681   3.9105 15.57097972242383
COSMOS 2550             
1 48865U 21056A   25208.22517096  .00006139  00000+0  19216-3 0  9994
2 48865  67.1441   2.9843 0008359 269.5096  90.5101 15.33847890228897
CZ-2C R/B               
1 52794U 22058K   25207.87437664  .00013365  00000+0  30980-3 0  9995
2 52794  50.1939  27.1551 0055191 339.2564  20.6161 15.41117744175172
GSLV R/B                
1 54149U 22138AN  25207.81287441  .00001939  00000+0  17429-3 0  9997
2 54149  87.3760 241.9885 0019722 249.1088 110.8031 14.94984748150161
XRISM                   
1 57800U 23137A   25207.68796835  .00004456  00000+0  27356-3 0  9998
2 57800  31.0026 301.8618 0007982 289.8061  70.1716 15.08417309103601
ACS3                    
1 59588U 24077B   25207.94944010  .00010730  00000+0  10265-1 0  9997
2 59588  97.4369 193.7943 0075429  47.5404 313.2097 13.79235837 62979
